FENGYUN-4B
1 48808U 21047A   25203.57489427 -.00000337  00000-0  00000-0 0  9994
2 48808   0.0845  76.5085 0003682 248.4834 287.2705  1.00271095 15271
TUBIN
1 48900U 21059X   25204.21694079  .00060746  00000-0  64400-3 0  9999
2 48900  97.6757  17.1074 0003567  82.6710 277.4953 15.63917326226852
LEDSAT
1 49069U 21073D   25204.21286684  .00100924  00000-0  96523-3 0  9995
2 49069  97.3872 287.7466 0007891 261.3538  98.6828 15.66349374218256
CUTE-LASP
1 49263U 21088D   25204.19300245  .00053828  00000-0  99338-3 0  9991
2 49263  97.4496 281.7578 0008494  85.8877 274.3344 15.48898690211178
JILIN-01 GAOFEN 2F
1 49338U 21097A   25204.15919051  .00004561  37260-8  32822-3 0  9992
2 49338  97.6335 327.8463 0018971 265.6364  94.2695 15.04133310201642
TEIKYOSAT-4 (OORURI)
1 49396U 21102B   25203.55717816  .00001553  00000-0  10534-3 0  9999
2 49396  97.4081 240.4322 0012169 354.1925   5.9160 15.07788834203026
Z-SAT
1 49399U 21102E   25204.15724803  .00003951  00000-0  21619-3 0  9993
2 49399  97.3777 244.3792 0016590 316.9149  43.0784 15.14707221203574
KOSEN-1
1 49402U 21102H   25204.17018336  .00006460  00000-0  29573-3 0  9992
2 49402  97.3682 248.1409 0013944 287.8515  72.1200 15.20758494203913
CAMSAT XW-3 (CAS-9)
1 50466U 21131B   25204.23301319  .00000517  00000-0  17498-3 0  9999
2 50466  98.5106 293.3734 0004342  22.6309 337.5071 14.40855253187737
SICH-2-1 (SICH-2-30)
1 51030U 22002AY  25204.18299416  .00108828  00000-0  83961-3 0  9995
2 51030  97.3311 282.9218 0001353  29.8627 330.2713 15.71615096196368
VZLUSAT-2
1 51085U 22002DF  25204.19266432  .00063309  00000-0  76077-3 0  9992
2 51085  97.3308 278.4132 0004832  51.7993 308.3698 15.60657272196070
INSPIRESAT-1
1 51657U 22013B   25204.12491290  .00032902  00000-0  64407-3 0  9993
2 51657  97.4865 235.1236 0007107 158.3764 201.7787 15.47318472191113
GOES-18
1 51850U 22021A   25203.95525391  .00000089  00000-0  00000+0 0  9993
2 51850   0.0110  87.4164 0000475 129.1819 291.2157  1.00270641 12506
MERIDIAN-10
1 52145U 22030A   25202.97302117  .00000229  00000-0  00000-0 0  9998
2 52145  62.6609 175.5834 6742428 273.3375  17.7897  2.00600410 24406
BRO-6
1 52422U 22047AE  25204.17895660  .00014442  00000-0  40580-3 0  9990
2 52422  97.3647 287.4954 0005910 163.6856 196.4580 15.36610424180433
CONNECTA-T1
1 52739U 22057H   25203.87493036  .00042487  00000-0  60529-3 0  9994
2 52739  97.6139 346.3269 0004981 168.0340 192.1033 15.56204204175854
PLATFORM-1
1 52770U 22057AQ  25203.95268958  .00103809  00000-0  76201-3 0  9991
2 52770  97.6068 351.8660 0004512 162.1264 198.0159 15.72802411176268
STEP CUBELAB-II
1 52897U 22065D   25204.14276932  .00000881  00000-0  18332-3 0  9990
2 52897  98.1764 345.1773 0008198 344.6762  15.4190 14.62432681163395
RANDEV
1 52898U 22065E   25204.15584040  .00000914  00000-0  18866-3 0  9993
2 52898  98.1752 345.4067 0007543 346.5633  13.5367 14.62753093163133
SNUGLITE-II
1 52899U 22065F   25204.18589433  .00001038  00000-0  21045-3 0  9999
2 52899  98.1740 345.7490 0007104 346.5463  13.5549 14.63293660162869
MIMAN
1 52900U 22065G   25204.16266083  .00000576  00000-0  12636-3 0  9995
2 52900  98.1786 344.3753 0007148 344.6680  15.4303 14.61213554162374
GREENCUBE (IO-117)
1 53106U 22080B   25051.21822557 -.00000003  00000-0  00000 0 0  9995
2 53106  70.1434 106.3440 0008542  48.0089 312.1297  6.42557744 61200
ROBUSTA 1F (MTCUBE-2)
1 53109U 22080E   25203.54640236 -.00000003  00000-0  00000-0 0  9996
2 53109  70.1405  52.8728 0008677   1.5292 358.5393  6.42583740 70884
BLUEWALKER-3
1 53807U 22111AL  25203.54910009  .00006288  00000-0  20274-3 0  9992
2 53807  53.2318 136.1863 0005648 234.6065 125.4411 15.33488999159545
ELEKTRO-L4
1 55506U 23016A   25202.70699623 -.00000062  00000-0  00000-0 0  9995
2 55506   0.0669 212.5519 0001381 331.0951 176.3375  1.00271093  9020
SHARJAHSAT-1
1 55104U 23001CZ  25204.14726471  .00011193  00000-0  32652-3 0  9992
2 55104  97.3690 265.7331 0007231 201.0553 159.0394 15.35491948141788
METEOR M2-3
1 57166U 23091A   25204.19643560  .00000005  00000-0  21095-4 0  9993
2 57166  98.6589 260.0432 0004853  56.9527 303.2117 14.24004413107696
STRATOSAT-TK1 (RS52S)
1 57167U 23091B   25204.19876355  .00049633  00000-0  11206-2 0  9995
2 57167  97.5505 269.1889 0009268 148.8947 211.2850 15.43007830114734
RESHUCUBE-2 (RS37S)
1 57168U 23091C   25204.17483079  .00008330  00000-0  39900-3 0  9992
2 57168  97.5539 260.8006 0013715 172.2246 187.9204 15.19115039114181
RASSVET 1-1
1 57169U 23091D   25204.18694227  .00007816  00000-0  39047-3 0  9993
2 57169  97.5598 260.6568 0012428 162.7469 197.4189 15.17684399114152
RASSVET 1-2
1 57170U 23091E   25204.18709017  .00007812  00000-0  39037-3 0  9994
2 57170  97.5603 260.7109 0011422 154.2783 205.9021 15.17686097114158
RASSVET 1-3
1 57171U 23091F   25204.18667662  .00007800  00000-0  38960-3 0  9995
2 57171  97.5599 260.6779 0012992 173.1421 186.9992 15.17684713114155
UMKA-1 (RS40S)
1 57172U 23091G   25204.18302585  .00005962  00000-0  31546-3 0  9996
2 57172  97.5559 259.3423 0014478 177.4552 182.6756 15.15737994114087
SATURN (RS43S)
1 57174U 23091J   25204.17218046  .00003690  00000-0  22609-3 0  9991
2 57174  97.5565 256.6810 0013843 195.3006 164.7807 15.10725790113908
CUBEBEL-2 (EU11S)
1 57175U 23091K   25204.16106022  .00010118  00000-0  47240-3 0  9992
2 57175  97.5559 260.7394 0012142 182.8137 177.3031 15.19958936114170
SITRO-AIS-5 (ANOKHIN)
1 57176U 23091L   25204.19910745  .00009898  00000-0  45619-3 0  9992
2 57176  97.5563 261.2306 0014333 171.9333 188.2135 15.20388220114201
ZORKIY-2M
1 57177U 23091M   25204.19420317  .00005616  00000-0  30001-3 0  9997
2 57177  97.5596 259.5439 0015322 174.2363 185.9049 15.15410452114084
CUBESX-HSE-3 (RS42S)
1 57178U 23091N   25204.20335909  .00010557  00000-0  47225-3 0  9998
2 57178  97.5590 262.1089 0014025 164.5574 195.6092 15.21400144114243
PHI-DEMO
1 57181U 23091R   25204.15692487  .00004067  00000-0  24334-3 0  9998
2 57181  97.5572 257.1536 0016135 186.6837 173.4180 15.11496017113939
MONITOR-3 (RS58S)
1 57180U 23091Q   25204.14738689  .00008292  00000-0  39089-3 0  9998
2 57180  97.5586 261.2027 0014562 167.5324 192.6273 15.19660570114184
NORBY-2
1 57179U 23091P   25204.18585306  .00004098  00000-0  23599-3 0  9995
2 57179  97.5603 258.2476 0016254 177.2131 182.9193 15.12878825113987
MONITOR-4 (RS57S)
1 57182U 23091S   25204.20824382  .00009261  00000-0  43543-3 0  9990
2 57182  97.5579 261.2218 0014589 167.9062 192.2526 15.19713700114194
MONITOR-2 (RS39S)
1 57184U 23091U   25204.14677533  .00004510  00000-0  24674-3 0  9995
2 57184  97.5587 259.5286 0012742 167.2470 192.9087 15.14705664114076
SVYATOBOR-1 (RS60S)
1 57187U 23091X   25204.18659085  .00008157  00000-0  38718-3 0  9999
2 57187  97.5590 261.9391 0011772 157.9099 202.2645 15.19459464114234
VIZARD-METEO (RS38S)
1 57189U 23091Z   25204.19753915  .00013249  00000-0  54424-3 0  9999
2 57189  97.5578 264.1419 0010438 149.3721 210.8128 15.24276981114387
NANOZOND-1 (RS49S)
1 57190U 23091AA  25204.15049568  .00031182  00000-0  84537-3 0  9993
2 57190  97.5531 268.8318 0007671 140.8764 219.3036 15.37555147114701
SITRO-AIS-6 (CHIRKIN)
1 57192U 23091AC  25204.18927492  .00010299  00000-0  47591-3 0  9994
2 57192  97.5561 261.2233 0014271 171.7836 188.3635 15.20286308114203
SITRO-AIS-8 (SHCHUKIN)
1 57193U 23091AD  25204.18717560  .00011953  00000-0  52845-3 0  9994
2 57193  97.5558 261.8208 0013733 170.9265 189.2221 15.21770498114241
SITRO-AIS-7 (SHEFFER)
1 57194U 23091AE  25204.14800437  .00009160  00000-0  42505-3 0  9996
2 57194  97.5561 261.1138 0014094 172.3591 187.7862 15.20179211114193
AVION KALUGA 650
1 57195U 23091AF  25204.18527032  .00005698  00000-0  30293-3 0  9991
2 57195  97.5598 260.2112 0011971 166.5201 193.6354 15.15613691114113
SITRO-AIS-10 (KATYS)
1 57199U 23091AK  25204.20212047  .00014218  00000-0  56697-3 0  9999
2 57199  97.5572 264.3944 0010115 152.7217 207.4553 15.25260238114403
SITRO-AIS-9 (BURDAEV)
1 57201U 23091AM  25204.15975938  .00013451  00000-0  53981-3 0  9993
2 57201  97.5569 264.2502 0010097 153.0353 207.1411 15.25060321114395
UTMN-2 (RS27S)
1 57203U 23091AP  25204.15881428  .00009834  00000-0  42772-3 0  9991
2 57203  97.5579 263.2683 0010924 151.9137 208.2691 15.22413524114322
SITRO-AIS-12 (FARTUSHNY)
1 57204U 23091AQ  25204.13606233  .00012853  00000-0  51287-3 0  9995
2 57204  97.5578 264.5277 0010094 147.3893 212.7970 15.25263676114404
ARCCUBE-1 (RS25S)
1 57205U 23091AR  25204.17763351  .00065912  00000-0  12052-2 0  9995
2 57205  97.5439 271.6517 0006341 138.1684 222.0052 15.49128018114910
AHMAT-1 (RS41S)
1 57206U 23091AS  25204.13197495  .00020757  00000-0  66739-3 0  9992
2 57206  97.5535 266.9477 0008603 147.0304 213.1476 15.32250527114588
SITRO-AIS-11 (SMIRENNY)
1 57208U 23091AU  25204.14871147  .00011826  00000-0  46923-3 0  9998
2 57208  97.5575 264.6415 0009982 147.3298 212.8558 15.25475553114416
KUZGTU-1 (RS47S)
1 57217U 23091AV  25204.18184752  .00010475  00000-0  47744-3 0  9992
2 57217  97.5564 261.5844 0014013 166.7845 193.3760 15.20757898114227
STRATOSAT-TK1-A (RS45S)
1 57322U 23091AW  25204.00127947  .00635324  16101-3  20619-2 0  9992
2 57322  97.5371 276.5148 0007441 221.3981 138.6728 15.90714762113077
STRATOSAT-TK1-E (RS52SE)
1 57323U 23091AX  25204.15732092  .00031848  00000-0  93195-3 0  9991
2 57323  97.5537 266.8535 0010804 154.1266 206.0519 15.35134016112456
STRATOSAT-TK1-B (RS52SB)
1 57324U 23091AY  25204.15618478  .00558769  11936-3  20536-2 0  9990
2 57324  97.5372 276.4917 0006721 216.0629 144.0189 15.88230510113087
STRATOSAT-TK1-D (RS52SD)
1 57326U 23091BA  25204.15609919  .00026895  00000-0  81089-3 0  9990
2 57326  97.5528 266.5062 0010841 155.3184 204.8579 15.34225406112279
STRATOSAT-TK1-V (RS52SV)
1 57327U 23091BB  25204.14714515  .00627428  15624-3  20669-2 0  9995
2 57327  97.5375 276.6937 0007149 221.7210 138.3518 15.90422853112932
